[{"OBJECT_NAME":"UHETSAT","OBJECT_ID":"2023-185E","EPOCH":"2026-03-09T22:39:26.455680","MEAN_MOTION":15.29797662,"ECCENTRICITY":0.00118435,"INCLINATION":97.3584,"RA_OF_ASC_NODE":137.3576,"ARG_OF_PERICENTER":307.7346,"MEAN_ANOMALY":52.2821,"EPHEMERIS_TYPE":0,"CLASSIFICATION_TYPE":"U","NORAD_CAT_ID":58466,"ELEMENT_SET_NO":999,"REV_AT_EPOCH":12611,"BSTAR":0.00030513019,"MEAN_MOTION_DOT":8.749e-5,"MEAN_MOTION_DDOT":0},{"OBJECT_NAME":"STARLINK-31872","OBJECT_ID":"2024-106A","EPOCH":"2026-03-09T03:10:29.366112","MEAN_MOTION":15.27559083,"ECCENTRICITY":0.00022667,"INCLINATION":43.0037,"RA_OF_ASC_NODE":336.0083,"ARG_OF_PERICENTER":281.8013,"MEAN_ANOMALY":78.2584,"EPHEMERIS_TYPE":0,"CLASSIFICATION_TYPE":"U","NORAD_CAT_ID":59922,"ELEMENT_SET_NO":999,"REV_AT_EPOCH":10047,"BSTAR":2.7932143e-5,"MEAN_MOTION_DOT":5.06e-6,"MEAN_MOTION_DDOT":0}]
